EAGLEEYE                
1 60508U 24149AS  26156.82431140  .00114721  00000+0  99072-3 0  9997
2 60508  97.3720 249.5528 0002915 271.5998  88.4930 15.68864573101155
FLOCK 4BE-29            
1 60509U 24149AT  26156.96776303  .00023745  00000+0  52602-3 0  9999
2 60509  97.3805 242.6746 0002008   6.8747 353.2528 15.43771545100682
FLOCK 4BE-2             
1 60511U 24149AV  26156.51874206  .00055866  00000+0  94398-3 0  9991
2 60511  97.3830 243.4920 0002241 314.8993  45.2077 15.51431548100693
FLOCK 4BE-13            
1 60512U 24149AW  26156.53806963  .00014836  00000+0  35493-3 0  9992
2 60512  97.3716 240.8312 0002840 322.9578  37.1473 15.41563070100579
FLOCK 4BE-27            
1 60513U 24149AX  26156.45549432  .00008707  00000+0  26510-3 0  9999
2 60513  97.3822 238.3029 0003527   8.6721 351.4582 15.34233363100345
FLOCK 4BE-9             
1 60514U 24149AY  26156.46386512  .00014803  00000+0  36755-3 0  9995
2 60514  97.3788 240.6250 0002141  10.1464 349.9825 15.40436769100515
FLOCK 4BE-6             
1 60516U 24149BA  26156.48348344  .00014120  00000+0  36459-3 0  9993
2 60516  97.3785 240.0250 0002652   3.1003 357.0258 15.39249089100476
FLOCK 4BE-14            
1 60517U 24149BB  26156.47778823  .00016628  00000+0  41002-3 0  9997
2 60517  97.3694 240.1457 0003481 353.2344   6.8854 15.40617989100521
FLOCK 4BE-1             
1 60518U 24149BC  26156.96003549  .00025747  00000+0  60021-3 0  9992
2 60518  97.3776 241.8693 0003139 349.2331  10.8849 15.42226871100644
FLOCK 4BE-28            
1 60519U 24149BD  26156.53743203  .00019357  00000+0  41916-3 0  9996
2 60519  97.3744 242.1297 0003223 345.9740  14.1418 15.44485980100644
CONNECTA IOT-2          
1 60522U 24149BG  26156.95188578  .00006054  00000+0  25362-3 0  9991
2 60522  97.3834 235.2686 0006619  19.3602 340.7885 15.23879958100188
PTD-R (TYVAK-0127)      
1 60523U 24149BH  26156.51081782  .00807968  32323-3  13406-2 0  9998
2 60523  97.3895 256.2759 0007672 272.7905  87.2496 16.03036816101562
CONNECTA IOT-4          
1 60524U 24149BJ  26155.74719215  .00021115  00000+0  50188-3 0  9996
2 60524  97.3795 239.9749 0004419 344.3876  15.7234 15.41677482100418
ORESAT0.5               
1 60525U 24149BK  26155.22817683  .00021128  00000+0  45575-3 0  9996
2 60525  97.3720 241.0355 0004395 335.4911  24.6128 15.44577435100475
DEIMOS                  
1 60526U 24149BL  26156.48488320  .00018607  00000+0  41245-3 0  9996
2 60526  97.3788 242.4569 0004449 338.3576  21.7484 15.43794570100643
ERNST                   
1 60528U 24149BN  26156.53173819  .00013949  00000+0  36432-3 0  9994
2 60528  97.3804 240.1668 0005188 351.3952   8.7204 15.38891362100481
TORO                    
1 60530U 24149BQ  26156.93900624  .00002479  00000+0  22395-3 0  9992
2 60530  97.6775 231.8171 0001431  89.6929 270.4456 14.96379326 98276
HYPSO-2                 
1 60531U 24149BR  26155.18187425  .00002590  00000+0  22011-3 0  9994
2 60531  97.6836 231.6334 0002153  61.9102 298.2338 14.98737079 98106
LEMU NGE                
1 60532U 24149BS  26156.94022517  .00002875  00000+0  26878-3 0  9991
2 60532  97.6835 232.1273 0002404  81.1346 279.0147 14.94905170 98275
LEMUR-2-STELLA          
1 60533U 24149BT  26155.17398638  .00013309  00000+0  78866-3 0  9994
2 60533  97.6733 237.5749 0001851 101.9080 258.2357 15.11514040 98534
SATELIOT_4              
1 60537U 24149BX  26156.93883420  .00002422  00000+0  21752-3 0  9997
2 60537  97.6727 231.6353 0003310  84.4454 275.7145 14.96624905 98295
PICO-02A021             
1 60538U 24149BY  26156.45068677  .00005031  00000+0  37700-3 0  9993
2 60538  97.6724 235.3861 0005813  63.3313 296.8507 15.03126063 97979
ICEYE-X43               
1 60539U 24149BZ  26155.68432603  .00004687  00000+0  38237-3 0  9994
2 60539  97.6758 232.8227 0007360 121.8704 238.3236 14.99901035 98243
