OBJECT_NAME,OBJECT_ID,EPOCH,MEAN_MOTION,ECCENTRICITY,INCLINATION,RA_OF_ASC_NODE,ARG_OF_PERICENTER,MEAN_ANOMALY,EPHEMERIS_TYPE,CLASSIFICATION_TYPE,NORAD_CAT_ID,ELEMENT_SET_NO,REV_AT_EPOCH,BSTAR,MEAN_MOTION_DOT,MEAN_MOTION_DDOT
EAGLEEYE,2024-149AS,2026-06-05T19:47:00.504960,15.68864573,.0002915,97.3720,249.5528,271.5998,88.4930,0,U,60508,999,10115,.99072E-3,.114721E-2,0
FLOCK 4BE-29,2024-149AT,2026-06-05T23:13:34.724928,15.43771545,.0002008,97.3805,242.6746,6.8747,353.2528,0,U,60509,999,10068,.52602E-3,.23745E-3,0
FLOCK 4BE-2,2024-149AV,2026-06-05T12:26:59.313984,15.51431548,.00022411,97.3830,243.4920,314.8993,45.2077,0,U,60511,999,10069,.94397892E-3,.55866E-3,0
FLOCK 4BE-13,2024-149AW,2026-06-05T12:54:49.216032,15.41563070,.00028401,97.3716,240.8312,322.9578,37.1473,0,U,60512,999,10057,.35493175E-3,.14836E-3,0
FLOCK 4BE-27,2024-149AX,2026-06-05T10:55:54.709248,15.34233363,.00035271,97.3822,238.3029,8.6721,351.4582,0,U,60513,999,10034,.26509646E-3,.8707E-4,0
FLOCK 4BE-9,2024-149AY,2026-06-05T11:07:57.946368,15.40436769,.00021412,97.3788,240.6250,10.1464,349.9825,0,U,60514,999,10051,.36755474E-3,.14803E-3,0
FLOCK 4BE-6,2024-149BA,2026-06-05T11:36:12.969216,15.39249089,.00026526,97.3785,240.0250,3.1003,357.0258,0,U,60516,999,10047,.36459211E-3,.1412E-3,0
FLOCK 4BE-14,2024-149BB,2026-06-05T11:28:00.903072,15.40617989,.00034816,97.3694,240.1457,353.2344,6.8854,0,U,60517,999,10052,.41001874E-3,.16628E-3,0
FLOCK 4BE-1,2024-149BC,2026-06-05T23:02:27.066336,15.42226871,.000314,97.3776,241.8693,349.2331,10.8849,0,U,60518,999,10064,.60021E-3,.25747E-3,0
FLOCK 4BE-28,2024-149BD,2026-06-05T12:53:54.127392,15.44485980,.00032235,97.3744,242.1297,345.9740,14.1418,0,U,60519,999,10064,.41916033E-3,.19357E-3,0
CONNECTA IOT-2,2024-149BG,2026-06-05T22:50:42.931392,15.23879958,.000662,97.3834,235.2686,19.3602,340.7885,0,U,60522,999,10018,.25362E-3,.6054E-4,0
PTD-R (TYVAK-0127),2024-149BH,2026-06-05T12:15:34.659648,16.03036816,.00076723,97.3895,256.2759,272.7905,87.2496,0,U,60523,999,10156,.13405809E-2,.807968E-2,.32322927E-3
CONNECTA IOT-4,2024-149BJ,2026-06-04T17:55:57.401760,15.41677482,.00044192,97.3795,239.9749,344.3876,15.7234,0,U,60524,999,10041,.50188355E-3,.21115E-3,0
ORESAT0.5,2024-149BK,2026-06-04T05:28:34.478112,15.44577435,.00043958,97.3720,241.0355,335.4911,24.6128,0,U,60525,999,10047,.45575303E-3,.21128E-3,0
DEIMOS,2024-149BL,2026-06-05T11:38:13.908480,15.43794570,.00044496,97.3788,242.4569,338.3576,21.7484,0,U,60526,999,10064,.41245272E-3,.18607E-3,0
ERNST,2024-149BN,2026-06-05T12:45:42.179616,15.38891362,.00051885,97.3804,240.1668,351.3952,8.7204,0,U,60528,999,10048,.36431859E-3,.13949E-3,0
TORO,2024-149BQ,2026-06-05T22:32:10.139136,14.96379326,.0001432,97.6775,231.8171,89.6929,270.4456,0,U,60530,999,9827,.22395E-3,.2479E-4,0
HYPSO-2,2024-149BR,2026-06-04T04:21:53.935200,14.98737079,.00021532,97.6836,231.6334,61.9102,298.2338,0,U,60531,999,9810,.22010964E-3,.259E-4,0
LEMU NGE,2024-149BS,2026-06-05T22:33:55.453824,14.94905170,.0002404,97.6835,232.1273,81.1346,279.0147,0,U,60532,999,9827,.26878E-3,.2875E-4,0
LEMUR-2-STELLA,2024-149BT,2026-06-04T04:10:32.423232,15.11514040,.0001851,97.6733,237.5749,101.9080,258.2357,0,U,60533,999,9853,.78866E-3,.13309E-3,0
SATELIOT_4,2024-149BX,2026-06-05T22:31:55.274016,14.96624905,.000331,97.6727,231.6353,84.4454,275.7145,0,U,60537,999,9829,.21752E-3,.2422E-4,0
PICO-02A021,2024-149BY,2026-06-05T10:48:59.336928,15.03126063,.00058131,97.6724,235.3861,63.3313,296.8507,0,U,60538,999,9797,.37699585E-3,.5031E-4,0
ICEYE-X43,2024-149BZ,2026-06-04T16:25:25.768992,14.99901035,.000736,97.6758,232.8227,121.8704,238.3236,0,U,60539,999,9824,.38237E-3,.4687E-4,0
